[{"OBJECT_NAME":"STARLINK-3369","OBJECT_ID":"2022-005AQ","EPOCH":"2026-03-09T22:22:22.044576","MEAN_MOTION":15.18998951,"ECCENTRICITY":0.00032386,"INCLINATION":53.2137,"RA_OF_ASC_NODE":280.745,"ARG_OF_PERICENTER":175.5204,"MEAN_ANOMALY":184.5822,"EPHEMERIS_TYPE":0,"CLASSIFICATION_TYPE":"U","NORAD_CAT_ID":51142,"ELEMENT_SET_NO":999,"REV_AT_EPOCH":22901,"BSTAR":0.0020382455,"MEAN_MOTION_DOT":0.00043116,"MEAN_MOTION_DDOT":0},{"OBJECT_NAME":"HAWK-12C","OBJECT_ID":"2025-138A","EPOCH":"2026-03-09T22:54:55.356768","MEAN_MOTION":15.17353041,"ECCENTRICITY":0.00157924,"INCLINATION":97.4363,"RA_OF_ASC_NODE":73.1446,"ARG_OF_PERICENTER":124.4693,"MEAN_ANOMALY":235.8035,"EPHEMERIS_TYPE":0,"CLASSIFICATION_TYPE":"U","NORAD_CAT_ID":64621,"ELEMENT_SET_NO":999,"REV_AT_EPOCH":3881,"BSTAR":0.00031482945,"MEAN_MOTION_DOT":6.237e-5,"MEAN_MOTION_DDOT":0}]
